CTC2_L_00361016-03
1 50720U 26896VI  26037.47795139  .00000000  00000+0  00000-0 0  9997
2 50720  90.0000 180.0000 0000000   0.0000   0.0000 13.29142284    11
CTC2_L_00361016-04
1 50721U 23176SI  26037.47795139  .00000000  00000+0  00000-0 0  9996
2 50721  90.0000 180.0000 0000000   0.0000  90.0000 13.29142284    11
CTC2_L_00361017-01
1 50722U 22822EX  26037.47795139  .00000000  00000+0  00000-0 0  9994
2 50722  90.0000 192.0000 0000000   0.0000 192.0000 13.29142284    18
CTC2_L_00361017-02
1 50723U 22390OC  26037.47795139  .00000000  00000+0  00000-0 0  9995
2 50723  90.0000 192.0000 0000000   0.0000 282.0000 13.29142284    19
CTC2_L_00361017-03
1 50724U 26936FM  26037.47795139  .00000000  00000+0  00000-0 0  9996
2 50724  90.0000 192.0000 0000000   0.0000  12.0000 13.29142284    11
CTC2_L_00361017-04
1 50725U 25141SO  26037.47795139  .00000000  00000+0  00000-0 0  9994
2 50725  90.0000 192.0000 0000000   0.0000 102.0000 13.29142284    12
CTC2_L_00361018-01
1 50726U 24896MO  26037.47795139  .00000000  00000+0  00000-0 0  9991
2 50726  90.0000 204.0000 0000000   0.0000 204.0000 13.29142284    10
CTC2_L_00361018-02
1 50727U 23723DA  26037.47795139  .00000000  00000+0  00000-0 0  9990
2 50727  90.0000 204.0000 0000000   0.0000 294.0000 13.29142284    10
CTC2_L_00361018-03
1 50728U 23691FO  26037.47795139  .00000000  00000+0  00000-0 0  9995
2 50728  90.0000 204.0000 0000000   0.0000  24.0000 13.29142284    12
CTC2_L_00361018-04
1 50729U 24873WX  26037.47795139  .00000000  00000+0  00000-0 0  9999
2 50729  90.0000 204.0000 0000000   0.0000 114.0000 13.29142284    13
CTC2_L_00361019-01
1 50730U 22361AB  26037.47795139  .00000000  00000+0  00000-0 0  9991
2 50730  90.0000 216.0000 0000000   0.0000 216.0000 13.29142284    11
CTC2_L_00361019-02
1 50731U 22998DO  26037.47795139  .00000000  00000+0  00000-0 0  9998
2 50731  90.0000 216.0000 0000000   0.0000 306.0000 13.29142284    12
CTC2_L_00361019-03
1 50732U 25566VV  26037.47795139  .00000000  00000+0  00000-0 0  9993
2 50732  90.0000 216.0000 0000000   0.0000  36.0000 13.29142284    13
CTC2_L_00361019-04
1 50733U 22188BO  26037.47795139  .00000000  00000+0  00000-0 0  9991
2 50733  90.0000 216.0000 0000000   0.0000 126.0000 13.29142284    14
CTC2_L_00361020-01
1 50734U 23774UU  26037.47795139  .00000000  00000+0  00000-0 0  9994
2 50734  90.0000 228.0000 0000000   0.0000 228.0000 13.29142284    11
CTC2_L_00361020-02
1 50735U 22408IG  26037.47795139  .00000000  00000+0  00000-0 0  9998
2 50735  90.0000 228.0000 0000000   0.0000 318.0000 13.29142284    12
CTC2_L_00361020-03
1 50736U 25660JN  26037.47795139  .00000000  00000+0  00000-0 0  9992
2 50736  90.0000 228.0000 0000000   0.0000  48.0000 13.29142284    13
CTC2_L_00361020-04
1 50737U 22849RD  26037.47795139  .00000000  00000+0  00000-0 0  9999
2 50737  90.0000 228.0000 0000000   0.0000 138.0000 13.29142284    14
CTC2_L_00361021-01
1 50738U 26372QN  26037.47795139  .00000000  00000+0  00000-0 0  9995
2 50738  90.0000 240.0000 0000000   0.0000 240.0000 13.29142284    13
CTC2_L_00361021-02
1 50739U 26430BZ  26037.47795139  .00000000  00000+0  00000-0 0  9991
2 50739  90.0000 240.0000 0000000   0.0000 330.0000 13.29142284    14
CTC2_L_00361021-03
1 50740U 22173YD  26037.47795139  .00000000  00000+0  00000-0 0  9993
2 50740  90.0000 240.0000 0000000   0.0000  60.0000 13.29142284    16
CTC2_L_00361021-04
1 50741U 23914OP  26037.47795139  .00000000  00000+0  00000-0 0  9998
2 50741  90.0000 240.0000 0000000   0.0000 150.0000 13.29142284    17
CTC2_L_00361022-01
1 50742U 26772TH  26037.47795139  .00000000  00000+0  00000-0 0  9994
2 50742  90.0000 252.0000 0000000   0.0000 252.0000 13.29142284    14
CTC2_L_00361022-02
1 50743U 24772ZN  26037.47795139  .00000000  00000+0  00000-0 0  9993
2 50743  90.0000 252.0000 0000000   0.0000 342.0000 13.29142284    15
CTC2_L_00361022-03
1 50744U 24412VP  26037.47795139  .00000000  00000+0  00000-0 0  9995
2 50744  90.0000 252.0000 0000000   0.0000  72.0000 13.29142284    16
CTC2_L_00361022-04
1 50745U 22219VE  26037.47795139  .00000000  00000+0  00000-0 0  9999
2 50745  90.0000 252.0000 0000000   0.0000 162.0000 13.29142284    17
CTC2_L_00361023-01
1 50746U 22293VW  26037.47795139  .00000000  00000+0  00000-0 0  9992
2 50746  90.0000 264.0000 0000000   0.0000 264.0000 13.29142284    14
CTC2_L_00361023-02
1 50747U 24287CG  26037.47795139  .00000000  00000+0  00000-0 0  9998
2 50747  90.0000 264.0000 0000000   0.0000 354.0000 13.29142284    15
CTC2_L_00361023-03
1 50748U 24480XQ  26037.47795139  .00000000  00000+0  00000-0 0  9994
2 50748  90.0000 264.0000 0000000   0.0000  84.0000 13.29142284    16
CTC2_L_00361023-04
1 50749U 26203JF  26037.47795139  .00000000  00000+0  00000-0 0  9990
2 50749  90.0000 264.0000 0000000   0.0000 174.0000 13.29142284    17
CTC2_L_00361024-01
1 50750U 23900EG  26037.47795139  .00000000  00000+0  00000-0 0  9993
2 50750  90.0000 276.0000 0000000   0.0000 276.0000 13.29142284    15
CTC2_L_00361024-02
1 50751U 24096DF  26037.47795139  .00000000  00000+0  00000-0 0  9991
2 50751  90.0000 276.0000 0000000   0.0000   6.0000 13.29142284    17
CTC2_L_00361024-03
1 50752U 23998ZD  26037.47795139  .00000000  00000+0  00000-0 0  9992
2 50752  90.0000 276.0000 0000000   0.0000  96.0000 13.29142284    17
CTC2_L_00361024-04
1 50753U 23450KN  26037.47795139  .00000000  00000+0  00000-0 0  9996
2 50753  90.0000 276.0000 0000000   0.0000 186.0000 13.29142284    18
CTC2_L_00361025-01
1 50754U 22699JH  26037.47795139  .00000000  00000+0  00000-0 0  9991
2 50754  90.0000 288.0000 0000000   0.0000 288.0000 13.29142284    15
CTC2_L_00361025-02
1 50755U 24129BY  26037.47795139  .00000000  00000+0  00000-0 0  9992
2 50755  90.0000 288.0000 0000000   0.0000  18.0000 13.29142284    17
CTC2_L_00361025-03
1 50756U 26435SH  26037.47795139  .00000000  00000+0  00000-0 0  9995
2 50756  90.0000 288.0000 0000000   0.0000 108.0000 13.29142284    18
CTC2_L_00361025-04
1 50757U 23119HT  26037.47795139  .00000000  00000+0  00000-0 0  9992
2 50757  90.0000 288.0000 0000000   0.0000 198.0000 13.29142284    18
CTC2_L_00361026-01
1 50758U 25962ML  26037.47795139  .00000000  00000+0  00000-0 0  9991
2 50758  90.0000 300.0000 0000000   0.0000 300.0000 13.29142284    19
CTC2_L_00361026-02
1 50759U 25811UR  26037.47795139  .00000000  00000+0  00000-0 0  9995
2 50759  90.0000 300.0000 0000000   0.0000  30.0000 13.29142284    10
CTC2_L_00361026-03
1 50760U 22917FH  26037.47795139  .00000000  00000+0  00000-0 0  9991
2 50760  90.0000 300.0000 0000000   0.0000 120.0000 13.29142284    12
CTC2_L_00361026-04
1 50761U 22340OD  26037.47795139  .00000000  00000+0  00000-0 0  9992
2 50761  90.0000 300.0000 0000000   0.0000 210.0000 13.29142284    13
CTC2_L_00361027-01
1 50762U 23153SJ  26037.47795139  .00000000  00000+0  00000-0 0  9996
2 50762  90.0000 312.0000 0000000   0.0000 312.0000 13.29142284    10
CTC2_L_00361027-02
1 50763U 26176OE  26037.47795139  .00000000  00000+0  00000-0 0  9995
2 50763  90.0000 312.0000 0000000   0.0000  42.0000 13.29142284    11
CTC2_L_00361027-03
1 50764U 23817FD  26037.47795139  .00000000  00000+0  00000-0 0  9995
2 50764  90.0000 312.0000 0000000   0.0000 132.0000 13.29142284    12
CTC2_L_00361027-04
1 50765U 25669CH  26037.47795139  .00000000  00000+0  00000-0 0  9993
2 50765  90.0000 312.0000 0000000   0.0000 222.0000 13.29142284    13
CTC2_L_00361028-01
1 50766U 25610QS  26037.47795139  .00000000  00000+0  00000-0 0  9990
2 50766  90.0000 324.0000 0000000   0.0000 324.0000 13.29142284    10
CTC2_L_00361028-02
1 50767U 25905WC  26037.47795139  .00000000  00000+0  00000-0 0  9998
2 50767  90.0000 324.0000 0000000   0.0000  54.0000 13.29142284    11
CTC2_L_00361028-03
1 50768U 23154GF  26037.47795139  .00000000  00000+0  00000-0 0  9993
2 50768  90.0000 324.0000 0000000   0.0000 144.0000 13.29142284    12
CTC2_L_00361028-04
1 50769U 24385XM  26037.47795139  .00000000  00000+0  00000-0 0  9991
2 50769  90.0000 324.0000 0000000   0.0000 234.0000 13.29142284    13
CTC2_L_00361029-01
1 50770U 23016JH  26037.47795139  .00000000  00000+0  00000-0 0  9993
2 50770  90.0000 336.0000 0000000   0.0000 336.0000 13.29142284    11
CTC2_L_00361029-02
1 50771U 24282NJ  26037.47795139  .00000000  00000+0  00000-0 0  9990
2 50771  90.0000 336.0000 0000000   0.0000  66.0000 13.29142284    12
CTC2_L_00361029-03
1 50772U 24204KT  26037.47795139  .00000000  00000+0  00000-0 0  9995
2 50772  90.0000 336.0000 0000000   0.0000 156.0000 13.29142284    13
CTC2_L_00361029-04
1 50773U 26998MS  26037.47795139  .00000000  00000+0  00000-0 0  9998
2 50773  90.0000 336.0000 0000000   0.0000 246.0000 13.29142284    14
CTC2_L_00361030-01
1 50774U 23173YY  26037.47795139  .00000000  00000+0  00000-0 0  9991
2 50774  90.0000 348.0000 0000000   0.0000 348.0000 13.29142284    11
CTC2_L_00361030-02
1 50775U 23557EZ  26037.47795139  .00000000  00000+0  00000-0 0  9998
2 50775  90.0000 348.0000 0000000   0.0000  78.0000 13.29142284    12
CTC2_L_00361030-03
1 50776U 22828NH  26037.47795139  .00000000  00000+0  00000-0 0  9999
2 50776  90.0000 348.0000 0000000   0.0000 168.0000 13.29142284    13
CTC2_L_00361030-04
1 50777U 24258JU  26037.47795139  .00000000  00000+0  00000-0 0  9999
2 50777  90.0000 348.0000 0000000   0.0000 258.0000 13.29142284    14
